{
    "links": {
        "self": "http://www.neowsapp.com/rest/v1/neo/3789740?api_key=iIulBulltgU6a56xZRHN4H3l9WmuAYTsLGpBGhQ2"
    },
    "id": "3789740",
    "neo_reference_id": "3789740",
    "name": "(2017 WA28)",
    "designation": "2017 WA28",
    "nasa_jpl_url": "http://ssd.jpl.nasa.gov/sbdb.cgi?sstr=3789740",
    "absolute_magnitude_h": 26.4,
    "estimated_diameter": {
        "kilometers": {
            "estimated_diameter_min": 0.0139493823,
            "estimated_diameter_max": 0.0311917671
        },
        "meters": {
            "estimated_diameter_min": 13.9493822934,
            "estimated_diameter_max": 31.1917670523
        },
        "miles": {
            "estimated_diameter_min": 0.0086677416,
            "estimated_diameter_max": 0.0193816595
        },
        "feet": {
            "estimated_diameter_min": 45.7656914036,
            "estimated_diameter_max": 102.3351970157
        }
    },
    "is_potentially_hazardous_asteroid": false,
    "close_approach_data": [
        {
            "close_approach_date": "2017-11-22",
            "close_approach_date_full": "2017-Nov-22 06:55",
            "epoch_date_close_approach": 1511333700000,
            "relative_velocity": {
                "kilometers_per_second": "21.1201940665",
                "kilometers_per_hour": "76032.6986393914",
                "miles_per_hour": "47243.7621073485"
            },
            "miss_distance": {
                "astronomical": "0.0231065004",
                "lunar": "8.9884286556",
                "kilometers": "3456683.242994148",
                "miles": "2147883.3685213224"
            },
            "orbiting_body": "Earth"
        },
        {
            "close_approach_date": "2091-06-01",
            "close_approach_date_full": "2091-Jun-01 11:42",
            "epoch_date_close_approach": 3831536520000,
            "relative_velocity": {
                "kilometers_per_second": "30.4460601245",
                "kilometers_per_hour": "109605.8164481201",
                "miles_per_hour": "68104.7918924444"
            },
            "miss_distance": {
                "astronomical": "0.3690452295",
                "lunar": "143.5585942755",
                "kilometers": "55208380.266861165",
                "miles": "34304896.758627477"
            },
            "orbiting_body": "Earth"
        }
    ],
    "orbital_data": {
        "orbit_id": "2",
        "orbit_determination_date": "2020-09-07 08:44:04",
        "first_observation_date": "2017-11-22",
        "last_observation_date": "2017-11-28",
        "data_arc_in_days": 6,
        "observations_used": 28,
        "orbit_uncertainty": "8",
        "minimum_orbit_intersection": ".0230445",
        "jupiter_tisserand_invariant": "2.898",
        "epoch_osculation": "2458083.5",
        "eccentricity": ".7418988173464632",
        "semi_major_axis": "2.652557981130003",
        "inclination": "12.15127820564848",
        "ascending_node_longitude": "65.7080186184845",
        "orbital_period": "1577.959147860993",
        "perihelion_distance": ".6846283519867317",
        "perihelion_argument": "279.4985228145633",
        "aphelion_distance": "4.620487610273275",
        "perihelion_time": "2458037.242656451531",
        "mean_anomaly": "10.55327934187801",
        "mean_motion": ".2281427884162901",
        "equinox": "J2000",
        "orbit_class": {
            "orbit_class_type": "APO",
            "orbit_class_description": "Near-Earth asteroid orbits which cross the Earth’s orbit similar to that of 1862 Apollo",
            "orbit_class_range": "a (semi-major axis) > 1.0 AU; q (perihelion) < 1.017 AU"
        }
    },
    "is_sentry_object": false
}